{"type": "FeatureCollection", "features": [ {"type": "Feature", "properties": {"norad_id": 34464, "name": "COSMOS 2251 DEB", "group": "cosmos-2251-debris", "lat": 9.191684744024741, "lon": -106.43068736742819, "alt_km": 484.4385866952389, "timestamp": "2025-12-13T16:48:33.104353+00:00", "meta": {"OBJECT_NAME": "COSMOS 2251 DEB", "OBJECT_ID": "1993-036TH", "EPOCH": "2025-12-12T16:28:50.095488", "MEAN_MOTION": 15.27039934, "ECCENTRICITY": 0.0015841, "INCLINATION": 73.989, "RA_OF_ASC_NODE": 78.3859, "ARG_OF_PERICENTER": 257.1412, "MEAN_ANOMALY": 102.802, "EPHEMERIS_TYPE": 0, "CLASSIFICATION_TYPE": "U", "NORAD_CAT_ID": 34464, "ELEMENT_SET_NO": 999, "REV_AT_EPOCH": 89839, "BSTAR": 0.0036824345, "MEAN_MOTION_DOT": 0.00099363, "MEAN_MOTION_DDOT": 0}, "tle": {"line1": "1 34464U 93036TH  25346.68669092  .00099363  00000+0  36824-2 0  9992", "line2": "2 34464  73.9890  78.3859 0015841 257.1412 102.8020 15.27039934898393"}}, "geometry": {"type": "Point", "coordinates": [-106.43068736742819, 9.191684744024741]}}, {"type": "Feature", "properties": {"norad_id": 34468, "name": "COSMOS 2251 DEB", "group": "cosmos-2251-debris", "lat": 56.75594445538228, "lon": -90.53179651473178, "alt_km": 769.4144309419717, "timestamp": "2025-12-13T16:48:33.104363+00:00", "meta": {"OBJECT_NAME": "COSMOS 2251 DEB", "OBJECT_ID": "1993-036TM", "EPOCH": "2025-12-12T18:41:29.154624", "MEAN_MOTION": 14.47625609, "ECCENTRICITY": 0.00763516, "INCLINATION": 74.0128, "RA_OF_ASC_NODE": 117.1306, "ARG_OF_PERICENTER": 262.0573, "MEAN_ANOMALY": 97.1916, "EPHEMERIS_TYPE": 0, "CLASSIFICATION_TYPE": "U", "NORAD_CAT_ID": 34468, "ELEMENT_SET_NO": 999, "REV_AT_EPOCH": 88462, "BSTAR": 0.00059670717, "MEAN_MOTION_DOT": 2.252e-05, "MEAN_MOTION_DDOT": 0}, "tle": {"line1": "1 34468U 93036TM  25346.77880966  .00002252  00000+0  59671-3 0  9998", "line2": "2 34468  74.0128 117.1306 0076351 262.0573  97.1916 14.47625609884620"}}, "geometry": {"type": "Point", "coordinates": [-90.53179651473178, 56.75594445538228]}}, {"type": "Feature", "properties": {"norad_id": 34472, "name": "COSMOS 2251 DEB", "group": "cosmos-2251-debris", "lat": -54.27922184896876, "lon": -60.056302817358954, "alt_km": 766.5944685436943, "timestamp": "2025-12-13T16:48:33.104373+00:00", "meta": {"OBJECT_NAME": "COSMOS 2251 DEB", "OBJECT_ID": "1993-036TR", "EPOCH": "2025-12-10T17:33:33.413472", "MEAN_MOTION": 13.70324681, "ECCENTRICITY": 0.03280455, "INCLINATION": 74.083, "RA_OF_ASC_NODE": 101.446, "ARG_OF_PERICENTER": 232.9036, "MEAN_ANOMALY": 124.1688, "EPHEMERIS_TYPE": 0, "CLASSIFICATION_TYPE": "U", "NORAD_CAT_ID": 34472, "ELEMENT_SET_NO": 999, "REV_AT_EPOCH": 83699, "BSTAR": 0.0010864797, "MEAN_MOTION_DOT": 1.379e-05, "MEAN_MOTION_DDOT": 0}, "tle": {"line1": "1 34472U 93036TR  25344.73163673  .00001379  00000+0  10865-2 0  9996", "line2": "2 34472  74.0830 101.4460 0328045 232.9036 124.1688 13.70324681836997"}}, "geometry": {"type": "Point", "coordinates": [-60.056302817358954, -54.27922184896876]}}, {"type": "Feature", "properties": {"norad_id": 34474, "name": "COSMOS 2251 DEB", "group": "cosmos-2251-debris", "lat": 40.134506481973624, "lon": 130.57600425033084, "alt_km": 889.5722739506864, "timestamp": "2025-12-13T16:48:33.104383+00:00", "meta": {"OBJECT_NAME": "COSMOS 2251 DEB", "OBJECT_ID": "1993-036TT", "EPOCH": "2025-12-12T23:14:26.128608", "MEAN_MOTION": 14.06415691, "ECCENTRICITY": 0.01983571, "INCLINATION": 74.0779, "RA_OF_ASC_NODE": 325.7794, "ARG_OF_PERICENTER": 39.588, "MEAN_ANOMALY": 351.1252, "EPHEMERIS_TYPE": 0, "CLASSIFICATION_TYPE": "U", "NORAD_CAT_ID": 34474, "ELEMENT_SET_NO": 999, "REV_AT_EPOCH": 85512, "BSTAR": 0.0027586021, "MEAN_MOTION_DOT": 5.425e-05, "MEAN_MOTION_DDOT": 0}, "tle": {"line1": "1 34474U 93036TT  25346.96835797  .00005425  00000+0  27586-2 0  9992", "line2": "2 34474  74.0779 325.7794 0198357  39.5880 351.1252 14.06415691855128"}}, "geometry": {"type": "Point", "coordinates": [130.57600425033084, 40.134506481973624]}}, {"type": "Feature", "properties": {"norad_id": 34476, "name": "COSMOS 2251 DEB", "group": "cosmos-2251-debris", "lat": 25.46622198886246, "lon": 88.73574134744217, "alt_km": 933.3015876464606, "timestamp": "2025-12-13T16:48:33.104393+00:00", "meta": {"OBJECT_NAME": "COSMOS 2251 DEB", "OBJECT_ID": "1993-036TV", "EPOCH": "2025-12-12T05:56:21.402816", "MEAN_MOTION": 13.82020455, "ECCENTRICITY": 0.03202691, "INCLINATION": 74.0049, "RA_OF_ASC_NODE": 83.3324, "ARG_OF_PERICENTER": 303.0021, "MEAN_ANOMALY": 54.0695, "EPHEMERIS_TYPE": 0, "CLASSIFICATION_TYPE": "U", "NORAD_CAT_ID": 34476, "ELEMENT_SET_NO": 999, "REV_AT_EPOCH": 83631, "BSTAR": 0.0050228987, "MEAN_MOTION_DOT": 7.967e-05, "MEAN_MOTION_DDOT": 0}, "tle": {"line1": "1 34476U 93036TV  25346.24746994  .00007967  00000+0  50229-2 0  9998", "line2": "2 34476  74.0049  83.3324 0320269 303.0021  54.0695 13.82020455836314"}}, "geometry": {"type": "Point", "coordinates": [88.73574134744217, 25.46622198886246]}}, {"type": "Feature", "properties": {"norad_id": 34477, "name": "COSMOS 2251 DEB", "group": "cosmos-2251-debris", "lat": 4.618937915666916, "lon": -113.65894462888949, "alt_km": 694.9898393447002, "timestamp": "2025-12-13T16:48:33.104403+00:00", "meta": {"OBJECT_NAME": "COSMOS 2251 DEB", "OBJECT_ID": "1993-036TW", "EPOCH": "2025-12-12T22:25:34.053888", "MEAN_MOTION": 14.56867004, "ECCENTRICITY": 0.0076902, "INCLINATION": 73.9791, "RA_OF_ASC_NODE": 69.1301, "ARG_OF_PERICENTER": 256.2479, "MEAN_ANOMALY": 224.0715, "EPHEMERIS_TYPE": 0, "CLASSIFICATION_TYPE": "U", "NORAD_CAT_ID": 34477, "ELEMENT_SET_NO": 999, "REV_AT_EPOCH": 88628, "BSTAR": 0.0012130735, "MEAN_MOTION_DOT": 5.635e-05, "MEAN_MOTION_DDOT": 0}, "tle": {"line1": "1 34477U 93036TW  25346.93442192  .00005635  00000+0  12131-2 0  9998", "line2": "2 34477  73.9791  69.1301 0076902 256.2479 224.0715 14.56867004886286"}}, "geometry": {"type": "Point", "coordinates": [-113.65894462888949, 4.618937915666916]}}, {"type": "Feature", "properties": {"norad_id": 34478, "name": "COSMOS 2251 DEB", "group": "cosmos-2251-debris", "lat": -48.28402168165156, "lon": -156.36688041972423, "alt_km": 524.4554422587416, "timestamp": "2025-12-13T16:48:33.104413+00:00", "meta": {"OBJECT_NAME": "COSMOS 2251 DEB", "OBJECT_ID": "1993-036TX", "EPOCH": "2025-12-12T20:56:00.870720", "MEAN_MOTION": 15.08018051, "ECCENTRICITY": 0.00348733, "INCLINATION": 74.0409, "RA_OF_ASC_NODE": 6.6121, "ARG_OF_PERICENTER": 227.7519, "MEAN_ANOMALY": 188.9344, "EPHEMERIS_TYPE": 0, "CLASSIFICATION_TYPE": "U", "NORAD_CAT_ID": 34478, "ELEMENT_SET_NO": 999, "REV_AT_EPOCH": 88975, "BSTAR": 0.0037033401, "MEAN_MOTION_DOT": 0.00058245, "MEAN_MOTION_DDOT": 0}, "tle": {"line1": "1 34478U 93036TX  25346.87223230  .00058245  00000+0  37033-2 0  9995", "line2": "2 34478  74.0409   6.6121 0034873 227.7519 188.9344 15.08018051889759"}}, "geometry": {"type": "Point", "coordinates": [-156.36688041972423, -48.28402168165156]}}, {"type": "Feature", "properties": {"norad_id": 34481, "name": "COSMOS 2251 DEB", "group": "cosmos-2251-debris", "lat": -67.67904791550374, "lon": 7.287406937437218, "alt_km": 764.4338761435874, "timestamp": "2025-12-13T16:48:33.104423+00:00", "meta": {"OBJECT_NAME": "COSMOS 2251 DEB", "OBJECT_ID": "1993-036UA", "EPOCH": "2025-12-12T21:35:35.305152", "MEAN_MOTION": 14.32552519, "ECCENTRICITY": 0.00707328, "INCLINATION": 73.9803, "RA_OF_ASC_NODE": 53.1635, "ARG_OF_PERICENTER": 227.5078, "MEAN_ANOMALY": 250.0095, "EPHEMERIS_TYPE": 0, "CLASSIFICATION_TYPE": "U", "NORAD_CAT_ID": 34481, "ELEMENT_SET_NO": 999, "REV_AT_EPOCH": 87451, "BSTAR": 0.001078853, "MEAN_MOTION_DOT": 2.983e-05, "MEAN_MOTION_DDOT": 0}, "tle": {"line1": "1 34481U 93036UA  25346.89971418  .00002983  00000+0  10789-2 0  9996", "line2": "2 34481  73.9803  53.1635 0070732 227.5078 250.0095 14.32552519874518"}}, "geometry": {"type": "Point", "coordinates": [7.287406937437218, -67.67904791550374]}}, {"type": "Feature", "properties": {"norad_id": 34482, "name": "COSMOS 2251 DEB", "group": "cosmos-2251-debris", "lat": -39.78292443043031, "lon": 55.52134262308491, "alt_km": 653.7016518282999, "timestamp": "2025-12-13T16:48:33.104434+00:00", "meta": {"OBJECT_NAME": "COSMOS 2251 DEB", "OBJECT_ID": "1993-036UB", "EPOCH": "2025-12-12T18:53:05.483328", "MEAN_MOTION": 14.69188587, "ECCENTRICITY": 0.00449745, "INCLINATION": 74.0373, "RA_OF_ASC_NODE": 223.5011, "ARG_OF_PERICENTER": 283.445, "MEAN_ANOMALY": 148.9424, "EPHEMERIS_TYPE": 0, "CLASSIFICATION_TYPE": "U", "NORAD_CAT_ID": 34482, "ELEMENT_SET_NO": 999, "REV_AT_EPOCH": 88188, "BSTAR": 0.0025368117, "MEAN_MOTION_DOT": 0.0001517, "MEAN_MOTION_DDOT": 0}, "tle": {"line1": "1 34482U 93036UB  25346.78686902  .00015170  00000+0  25368-2 0  9997", "line2": "2 34482  74.0373 223.5011 0044974 283.4450 148.9424 14.69188587881887"}}, "geometry": {"type": "Point", "coordinates": [55.52134262308491, -39.78292443043031]}}, {"type": "Feature", "properties": {"norad_id": 34544, "name": "COSMOS 2251 DEB", "group": "cosmos-2251-debris", "lat": 64.81917556789841, "lon": -119.66722728616007, "alt_km": 1316.099197915084, "timestamp": "2025-12-13T16:48:33.104444+00:00", "meta": {"OBJECT_NAME": "COSMOS 2251 DEB", "OBJECT_ID": "1993-036UE", "EPOCH": "2025-12-13T00:51:57.184128", "MEAN_MOTION": 13.5466325, "ECCENTRICITY": 0.03841405, "INCLINATION": 73.9141, "RA_OF_ASC_NODE": 203.5493, "ARG_OF_PERICENTER": 231.9395, "MEAN_ANOMALY": 201.512, "EPHEMERIS_TYPE": 0, "CLASSIFICATION_TYPE": "U", "NORAD_CAT_ID": 34544, "ELEMENT_SET_NO": 999, "REV_AT_EPOCH": 82886, "BSTAR": 0.00040485585, "MEAN_MOTION_DOT": 4.2e-06, "MEAN_MOTION_DDOT": 0}, "tle": {"line1": "1 34544U 93036UE  25347.03607852  .00000420  00000+0  40486-3 0  9993", "line2": "2 34544  73.9141 203.5493 0384140 231.9395 201.5120 13.54663250828863"}}, "geometry": {"type": "Point", "coordinates": [-119.66722728616007, 64.81917556789841]}}]}